{
    "links": {
        "self": "http://www.neowsapp.com/rest/v1/neo/3879235?api_key=iIulBulltgU6a56xZRHN4H3l9WmuAYTsLGpBGhQ2"
    },
    "id": "3879235",
    "neo_reference_id": "3879235",
    "name": "(2019 UA1)",
    "designation": "2019 UA1",
    "nasa_jpl_url": "http://ssd.jpl.nasa.gov/sbdb.cgi?sstr=3879235",
    "absolute_magnitude_h": 26.1,
    "estimated_diameter": {
        "kilometers": {
            "estimated_diameter_min": 0.0160160338,
            "estimated_diameter_max": 0.0358129403
        },
        "meters": {
            "estimated_diameter_min": 16.0160337979,
            "estimated_diameter_max": 35.8129403019
        },
        "miles": {
            "estimated_diameter_min": 0.0099518989,
            "estimated_diameter_max": 0.0222531225
        },
        "feet": {
            "estimated_diameter_min": 52.5460443254,
            "estimated_diameter_max": 117.4965270602
        }
    },
    "is_potentially_hazardous_asteroid": false,
    "close_approach_data": [
        {
            "close_approach_date": "2017-10-11",
            "close_approach_date_full": "2017-Oct-11 01:39",
            "epoch_date_close_approach": 1507685940000,
            "relative_velocity": {
                "kilometers_per_second": "9.7817746799",
                "kilometers_per_hour": "35214.3888475334",
                "miles_per_hour": "21880.8517814021"
            },
            "miss_distance": {
                "astronomical": "0.0467991762",
                "lunar": "18.2048795418",
                "kilometers": "7001057.077274694",
                "miles": "4350255.1438070172"
            },
            "orbiting_body": "Earth"
        },
        {
            "close_approach_date": "2019-10-15",
            "close_approach_date_full": "2019-Oct-15 16:43",
            "epoch_date_close_approach": 1571157780000,
            "relative_velocity": {
                "kilometers_per_second": "10.0073713517",
                "kilometers_per_hour": "36026.5368660008",
                "miles_per_hour": "22385.4889765437"
            },
            "miss_distance": {
                "astronomical": "0.0372501677",
                "lunar": "14.4903152353",
                "kilometers": "5572545.745062799",
                "miles": "3462619.3621886662"
            },
            "orbiting_body": "Earth"
        },
        {
            "close_approach_date": "2021-10-20",
            "close_approach_date_full": "2021-Oct-20 00:26",
            "epoch_date_close_approach": 1634689560000,
            "relative_velocity": {
                "kilometers_per_second": "10.5934615536",
                "kilometers_per_hour": "38136.4615928268",
                "miles_per_hour": "23696.5141491651"
            },
            "miss_distance": {
                "astronomical": "0.0777431835",
                "lunar": "30.2420983815",
                "kilometers": "11630214.658619145",
                "miles": "7226680.283248401"
            },
            "orbiting_body": "Earth"
        }
    ],
    "orbital_data": {
        "orbit_id": "4",
        "orbit_determination_date": "2019-10-24 06:06:44",
        "first_observation_date": "2019-10-19",
        "last_observation_date": "2019-10-24",
        "data_arc_in_days": 5,
        "observations_used": 23,
        "orbit_uncertainty": "8",
        "minimum_orbit_intersection": ".0348742",
        "jupiter_tisserand_invariant": "4.263",
        "epoch_osculation": "2458778.5",
        "eccentricity": ".3542626626813104",
        "semi_major_axis": "1.59240256711571",
        "inclination": "15.80463073192657",
        "ascending_node_longitude": "22.06340760872475",
        "orbital_period": "733.9690220350303",
        "perihelion_distance": "1.028273793628745",
        "perihelion_argument": "349.4972405331171",
        "aphelion_distance": "2.156531340602676",
        "perihelion_time": "2458763.572769178373",
        "mean_anomaly": "7.321566625368071",
        "mean_motion": ".4904839157950432",
        "equinox": "J2000",
        "orbit_class": {
            "orbit_class_type": "AMO",
            "orbit_class_description": "Near-Earth asteroid orbits similar to that of 1221 Amor",
            "orbit_class_range": "1.017 AU < q (perihelion) < 1.3 AU"
        }
    },
    "is_sentry_object": false
}